{"type": "FeatureCollection", "features": [ {"type": "Feature", "properties": {"norad_id": 42987, "name": "SKYSAT-C11", "group": "resource", "lat": -33.459370219458506, "lon": -46.74388243541597, "alt_km": 429.12478810319226, "timestamp": "2025-12-26T08:37:54.227452+00:00", "meta": {"OBJECT_NAME": "SKYSAT-C11", "OBJECT_ID": "2017-068A", "EPOCH": "2025-12-25T22:24:11.990304", "MEAN_MOTION": 15.48016298, "ECCENTRICITY": 0.0001155, "INCLINATION": 97.4151, "RA_OF_ASC_NODE": 137.7566, "ARG_OF_PERICENTER": 96.2263, "MEAN_ANOMALY": 263.9118, "EPHEMERIS_TYPE": 0, "CLASSIFICATION_TYPE": "U", "NORAD_CAT_ID": 42987, "ELEMENT_SET_NO": 999, "REV_AT_EPOCH": 45635, "BSTAR": 0.00044195, "MEAN_MOTION_DOT": 0.00023051, "MEAN_MOTION_DDOT": 0}, "tle": {"line1": "1 42987U 17068A   25359.93347211  .00023051  00000+0  44195-3 0  9992", "line2": "2 42987  97.4151 137.7566 0001155  96.2263 263.9118 15.48016298456351"}}, "geometry": {"type": "Point", "coordinates": [-46.74388243541597, -33.459370219458506]}}, {"type": "Feature", "properties": {"norad_id": 42988, "name": "SKYSAT-C10", "group": "resource", "lat": -70.44257683467862, "lon": -70.2941598411128, "alt_km": 479.78017029004786, "timestamp": "2025-12-26T08:37:54.227462+00:00", "meta": {"OBJECT_NAME": "SKYSAT-C10", "OBJECT_ID": "2017-068B", "EPOCH": "2025-12-24T19:29:00.783168", "MEAN_MOTION": 15.32071049, "ECCENTRICITY": 0.00043105, "INCLINATION": 97.4272, "RA_OF_ASC_NODE": 129.6977, "ARG_OF_PERICENTER": 75.127, "MEAN_ANOMALY": 285.0448, "EPHEMERIS_TYPE": 0, "CLASSIFICATION_TYPE": "U", "NORAD_CAT_ID": 42988, "ELEMENT_SET_NO": 999, "REV_AT_EPOCH": 45564, "BSTAR": 0.00040464637, "MEAN_MOTION_DOT": 0.00012461, "MEAN_MOTION_DDOT": 0}, "tle": {"line1": "1 42988U 17068B   25358.81181462  .00012461  00000+0  40465-3 0  9992", "line2": "2 42988  97.4272 129.6977 0004310  75.1270 285.0448 15.32071049455642"}}, "geometry": {"type": "Point", "coordinates": [-70.2941598411128, -70.44257683467862]}}, {"type": "Feature", "properties": {"norad_id": 42989, "name": "SKYSAT-C9", "group": "resource", "lat": -61.204544191631896, "lon": 144.43847282803182, "alt_km": 465.8837251433479, "timestamp": "2025-12-26T08:37:54.227472+00:00", "meta": {"OBJECT_NAME": "SKYSAT-C9", "OBJECT_ID": "2017-068C", "EPOCH": "2025-12-25T21:57:34.809408", "MEAN_MOTION": 15.36381631, "ECCENTRICITY": 0.0010212, "INCLINATION": 97.4194, "RA_OF_ASC_NODE": 130.2756, "ARG_OF_PERICENTER": 45.4149, "MEAN_ANOMALY": 314.7927, "EPHEMERIS_TYPE": 0, "CLASSIFICATION_TYPE": "U", "NORAD_CAT_ID": 42989, "ELEMENT_SET_NO": 999, "REV_AT_EPOCH": 45610, "BSTAR": 0.0003925, "MEAN_MOTION_DOT": 0.00013877, "MEAN_MOTION_DDOT": 0}, "tle": {"line1": "1 42989U 17068C   25359.91498622  .00013877  00000+0  39250-3 0  9996", "line2": "2 42989  97.4194 130.2756 0010212  45.4149 314.7927 15.36381631456101"}}, "geometry": {"type": "Point", "coordinates": [144.43847282803182, -61.204544191631896]}}, {"type": "Feature", "properties": {"norad_id": 42990, "name": "SKYSAT-C8", "group": "resource", "lat": 64.30646950211305, "lon": -33.84287920892691, "alt_km": 460.51899138825866, "timestamp": "2025-12-26T08:37:54.227482+00:00", "meta": {"OBJECT_NAME": "SKYSAT-C8", "OBJECT_ID": "2017-068D", "EPOCH": "2025-12-25T21:10:08.555808", "MEAN_MOTION": 15.33208945, "ECCENTRICITY": 9.45e-05, "INCLINATION": 97.4287, "RA_OF_ASC_NODE": 129.942, "ARG_OF_PERICENTER": 263.9401, "MEAN_ANOMALY": 96.1733, "EPHEMERIS_TYPE": 0, "CLASSIFICATION_TYPE": "U", "NORAD_CAT_ID": 42990, "ELEMENT_SET_NO": 999, "REV_AT_EPOCH": 45572, "BSTAR": 0.00035524, "MEAN_MOTION_DOT": 0.00011324, "MEAN_MOTION_DDOT": 0}, "tle": {"line1": "1 42990U 17068D   25359.88204347  .00011324  00000+0  35524-3 0  9998", "line2": "2 42990  97.4287 129.9420 0000945 263.9401  96.1733 15.33208945455725"}}, "geometry": {"type": "Point", "coordinates": [-33.84287920892691, 64.30646950211305]}}, {"type": "Feature", "properties": {"norad_id": 42991, "name": "SKYSAT-C7", "group": "resource", "lat": -58.66812293749781, "lon": 143.8297949207983, "alt_km": 473.77783835165064, "timestamp": "2025-12-26T08:37:54.227492+00:00", "meta": {"OBJECT_NAME": "SKYSAT-C7", "OBJECT_ID": "2017-068E", "EPOCH": "2025-12-25T21:55:18.596352", "MEAN_MOTION": 15.32604229, "ECCENTRICITY": 0.0006816, "INCLINATION": 97.4296, "RA_OF_ASC_NODE": 131.004, "ARG_OF_PERICENTER": 14.8643, "MEAN_ANOMALY": 345.2798, "EPHEMERIS_TYPE": 0, "CLASSIFICATION_TYPE": "U", "NORAD_CAT_ID": 42991, "ELEMENT_SET_NO": 999, "REV_AT_EPOCH": 45579, "BSTAR": 0.00037042, "MEAN_MOTION_DOT": 0.00011596, "MEAN_MOTION_DDOT": 0}, "tle": {"line1": "1 42991U 17068E   25359.91340968  .00011596  00000+0  37042-3 0  9991", "line2": "2 42991  97.4296 131.0040 0006816  14.8643 345.2798 15.32604229455792"}}, "geometry": {"type": "Point", "coordinates": [143.8297949207983, -58.66812293749781]}}, {"type": "Feature", "properties": {"norad_id": 42992, "name": "SKYSAT-C6", "group": "resource", "lat": 16.116608737004306, "lon": 129.7175162022443, "alt_km": 468.4647460077249, "timestamp": "2025-12-26T08:37:54.227502+00:00", "meta": {"OBJECT_NAME": "SKYSAT-C6", "OBJECT_ID": "2017-068F", "EPOCH": "2025-12-25T20:01:06.090528", "MEAN_MOTION": 15.31757076, "ECCENTRICITY": 0.00047376, "INCLINATION": 97.4326, "RA_OF_ASC_NODE": 131.3522, "ARG_OF_PERICENTER": 46.8398, "MEAN_ANOMALY": 313.3239, "EPHEMERIS_TYPE": 0, "CLASSIFICATION_TYPE": "U", "NORAD_CAT_ID": 42992, "ELEMENT_SET_NO": 999, "REV_AT_EPOCH": 45576, "BSTAR": 0.00037471515, "MEAN_MOTION_DOT": 0.0001142, "MEAN_MOTION_DDOT": 0}, "tle": {"line1": "1 42992U 17068F   25359.83409827  .00011420  00000+0  37472-3 0  9996", "line2": "2 42992  97.4326 131.3522 0004737  46.8398 313.3239 15.31757076455768"}}, "geometry": {"type": "Point", "coordinates": [129.7175162022443, 16.116608737004306]}}, {"type": "Feature", "properties": {"norad_id": 43111, "name": "CARTOSAT-2F", "group": "resource", "lat": -56.39464202161803, "lon": -133.54909004574196, "alt_km": 515.8061541427778, "timestamp": "2025-12-26T08:37:54.227512+00:00", "meta": {"OBJECT_NAME": "CARTOSAT-2F", "OBJECT_ID": "2018-004A", "EPOCH": "2025-12-26T04:25:48.114624", "MEAN_MOTION": 15.19253079, "ECCENTRICITY": 0.0001522, "INCLINATION": 97.4294, "RA_OF_ASC_NODE": 57.6031, "ARG_OF_PERICENTER": 112.2672, "MEAN_ANOMALY": 247.8724, "EPHEMERIS_TYPE": 0, "CLASSIFICATION_TYPE": "U", "NORAD_CAT_ID": 43111, "ELEMENT_SET_NO": 999, "REV_AT_EPOCH": 44106, "BSTAR": 0.0002401, "MEAN_MOTION_DOT": 4.993e-05, "MEAN_MOTION_DDOT": 0}, "tle": {"line1": "1 43111U 18004A   25360.18458466  .00004993  00000+0  24010-3 0  9995", "line2": "2 43111  97.4294  57.6031 0001522 112.2672 247.8724 15.19253079441061"}}, "geometry": {"type": "Point", "coordinates": [-133.54909004574196, -56.39464202161803]}}, {"type": "Feature", "properties": {"norad_id": 43259, "name": "GAOFEN-1 02", "group": "resource", "lat": 66.17018838960493, "lon": 39.39420301363794, "alt_km": 634.4609564299271, "timestamp": "2025-12-26T08:37:54.227545+00:00", "meta": {"OBJECT_NAME": "GAOFEN-1 02", "OBJECT_ID": "2018-031A", "EPOCH": "2025-12-26T05:04:26.232672", "MEAN_MOTION": 14.76444265, "ECCENTRICITY": 0.0002723, "INCLINATION": 98.0784, "RA_OF_ASC_NODE": 58.0042, "ARG_OF_PERICENTER": 168.4522, "MEAN_ANOMALY": 191.675, "EPHEMERIS_TYPE": 0, "CLASSIFICATION_TYPE": "U", "NORAD_CAT_ID": 43259, "ELEMENT_SET_NO": 999, "REV_AT_EPOCH": 41717, "BSTAR": 0.00021656, "MEAN_MOTION_DOT": 1.455e-05, "MEAN_MOTION_DDOT": 0}, "tle": {"line1": "1 43259U 18031A   25360.21141473  .00001455  00000+0  21656-3 0  9992", "line2": "2 43259  98.0784  58.0042 0002723 168.4522 191.6750 14.76444265417174"}}, "geometry": {"type": "Point", "coordinates": [39.39420301363794, 66.17018838960493]}}, {"type": "Feature", "properties": {"norad_id": 43260, "name": "GAOFEN-1 03", "group": "resource", "lat": -3.810214419584598, "lon": -122.51350988466136, "alt_km": 643.7007919867292, "timestamp": "2025-12-26T08:37:54.227570+00:00", "meta": {"OBJECT_NAME": "GAOFEN-1 03", "OBJECT_ID": "2018-031B", "EPOCH": "2025-12-26T06:10:31.736928", "MEAN_MOTION": 14.76426035, "ECCENTRICITY": 0.0001645, "INCLINATION": 98.078, "RA_OF_ASC_NODE": 57.9261, "ARG_OF_PERICENTER": 252.6735, "MEAN_ANOMALY": 107.4295, "EPHEMERIS_TYPE": 0, "CLASSIFICATION_TYPE": "U", "NORAD_CAT_ID": 43260, "ELEMENT_SET_NO": 999, "REV_AT_EPOCH": 41717, "BSTAR": 0.00016522, "MEAN_MOTION_DOT": 1.097e-05, "MEAN_MOTION_DDOT": 0}, "tle": {"line1": "1 43260U 18031B   25360.25731177  .00001097  00000+0  16522-3 0  9992", "line2": "2 43260  98.0780  57.9261 0001645 252.6735 107.4295 14.76426035417171"}}, "geometry": {"type": "Point", "coordinates": [-122.51350988466136, -3.810214419584598]}}, {"type": "Feature", "properties": {"norad_id": 43262, "name": "GAOFEN-1 04", "group": "resource", "lat": -46.81215508731349, "lon": 66.90180809475325, "alt_km": 647.5449967573431, "timestamp": "2025-12-26T08:37:54.227582+00:00", "meta": {"OBJECT_NAME": "GAOFEN-1 04", "OBJECT_ID": "2018-031D", "EPOCH": "2025-12-26T03:57:59.755680", "MEAN_MOTION": 14.76432792, "ECCENTRICITY": 4.85e-05, "INCLINATION": 98.0785, "RA_OF_ASC_NODE": 58.0043, "ARG_OF_PERICENTER": 66.8993, "MEAN_ANOMALY": 293.2268, "EPHEMERIS_TYPE": 0, "CLASSIFICATION_TYPE": "U", "NORAD_CAT_ID": 43262, "ELEMENT_SET_NO": 999, "REV_AT_EPOCH": 41715, "BSTAR": 0.00012019, "MEAN_MOTION_DOT": 7.84e-06, "MEAN_MOTION_DDOT": 0}, "tle": {"line1": "1 43262U 18031D   25360.16527495  .00000784  00000+0  12019-3 0  9999", "line2": "2 43262  98.0785  58.0043 0000485  66.8993 293.2268 14.76432792417159"}}, "geometry": {"type": "Point", "coordinates": [66.90180809475325, -46.81215508731349]}}]}